[
    {
        "Altitude(m)": 706993.180371078,
        "Argument of Periapsis(deg)": 0.004556048474650827,
        "Eccentricity": 0.0,
        "Inclination(deg)": 45.0,
        "Latitude(deg)": 43.74447532271747,
        "Longitude(deg)": -97.46089391728215,
        "Mean Anomaly(deg)": 102.79508665899233,
        "RAAN(deg)": 254.99569922341675,
        "Satellite Name": "Constellation 1 1128",
        "Satellite Number": 1128,
        "Semi-Major Axis(m)": 7083131.272910544,
        "Time(s)": 76
    },
    {
        "Altitude(m)": 706990.2293604842,
        "Argument of Periapsis(deg)": 0.004615996480896233,
        "Eccentricity": 0.0,
        "Inclination(deg)": 45.0,
        "Latitude(deg)": 43.731273160293206,
        "Longitude(deg)": -97.38315885571339,
        "Mean Anomaly(deg)": 102.85578779924222,
        "RAAN(deg)": 254.9956426342512,
        "Satellite Name": "Constellation 1 1128",
        "Satellite Number": 1128,
        "Semi-Major Axis(m)": 7083131.272910544,
        "Time(s)": 77
    },
    {
        "Altitude(m)": 706987.2655921901,
        "Argument of Periapsis(deg)": 0.004675944487141638,
        "Eccentricity": 0.0,
        "Inclination(deg)": 45.0,
        "Latitude(deg)": 43.7180124131488,
        "Longitude(deg)": -97.30545979691463,
        "Mean Anomaly(deg)": 102.9164889394921,
        "RAAN(deg)": 254.99558604508556,
        "Satellite Name": "Constellation 1 1128",
        "Satellite Number": 1128,
        "Semi-Major Axis(m)": 7083131.272910544,
        "Time(s)": 78
    },
    {
        "Altitude(m)": 706984.289083705,
        "Argument of Periapsis(deg)": 0.004735892493387044,
        "Eccentricity": 0.0,
        "Inclination(deg)": 45.0,
        "Latitude(deg)": 43.704693133718635,
        "Longitude(deg)": -97.22779686747865,
        "Mean Anomaly(deg)": 102.97719007974204,
        "RAAN(deg)": 254.99552945592,
        "Satellite Name": "Constellation 1 1128",
        "Satellite Number": 1128,
        "Semi-Major Axis(m)": 7083131.272910544,
        "Time(s)": 79
    },
    {
        "Altitude(m)": 706981.2998526212,
        "Argument of Periapsis(deg)": 0.004795840499632449,
        "Eccentricity": 0.0,
        "Inclination(deg)": 45.0,
        "Latitude(deg)": 43.691315374609616,
        "Longitude(deg)": -97.15017019345986,
        "Mean Anomaly(deg)": 103.03789121999188,
        "RAAN(deg)": 254.99547286675445,
        "Satellite Name": "Constellation 1 1128",
        "Satellite Number": 1128,
        "Semi-Major Axis(m)": 7083131.272910544,
        "Time(s)": 80
    },
    {
        "Altitude(m)": 706978.2979166051,
        "Argument of Periapsis(deg)": 0.004855788505877855,
        "Eccentricity": 0.0,
        "Inclination(deg)": 45.0,
        "Latitude(deg)": 43.67787918860023,
        "Longitude(deg)": -97.0725799003717,
        "Mean Anomaly(deg)": 103.09859236024181,
        "RAAN(deg)": 254.9954162775889,
        "Satellite Name": "Constellation 1 1128",
        "Satellite Number": 1128,
        "Semi-Major Axis(m)": 7083131.272910544,
        "Time(s)": 81
    },
    {
        "Altitude(m)": 706975.2832934065,
        "Argument of Periapsis(deg)": 0.00491573651212326,
        "Eccentricity": 0.0,
        "Inclination(deg)": 45.0,
        "Latitude(deg)": 43.66438462863964,
        "Longitude(deg)": -96.99502628128377,
        "Mean Anomaly(deg)": 103.15929350049171,
        "RAAN(deg)": 254.99535968842335,
        "Satellite Name": "Constellation 1 1128",
        "Satellite Number": 1128,
        "Semi-Major Axis(m)": 7083131.272910544,
        "Time(s)": 82
    },
    {
        "Altitude(m)": 706972.2560008358,
        "Argument of Periapsis(deg)": 0.004975684518368666,
        "Eccentricity": 0.0,
        "Inclination(deg)": 45.0,
        "Latitude(deg)": 43.65083174784664,
        "Longitude(deg)": -96.91750912443321,
        "Mean Anomaly(deg)": 103.21999464074158,
        "RAAN(deg)": 254.9953030992577,
        "Satellite Name": "Constellation 1 1128",
        "Satellite Number": 1128,
        "Semi-Major Axis(m)": 7083131.272910544,
        "Time(s)": 83
    },
    {
        "Altitude(m)": 706969.2160568014,
        "Argument of Periapsis(deg)": 0.005035632524614072,
        "Eccentricity": 0.0,
        "Inclination(deg)": 45.0,
        "Latitude(deg)": 43.63722059950894,
        "Longitude(deg)": -96.84002872180449,
        "Mean Anomaly(deg)": 103.28069578099154,
        "RAAN(deg)": 254.99524651009216,
        "Satellite Name": "Constellation 1 1128",
        "Satellite Number": 1128,
        "Semi-Major Axis(m)": 7083131.272910544,
        "Time(s)": 84
    },
    {
        "Altitude(m)": 706966.1634792681,
        "Argument of Periapsis(deg)": 0.0050955805308594785,
        "Eccentricity": 0.0,
        "Inclination(deg)": 45.0,
        "Latitude(deg)": 43.62355123708236,
        "Longitude(deg)": -96.762585196742,
        "Mean Anomaly(deg)": 103.3413969212414,
        "RAAN(deg)": 254.9951899209266,
        "Satellite Name": "Constellation 1 1128",
        "Satellite Number": 1128,
        "Semi-Major Axis(m)": 7083131.272910544,
        "Time(s)": 85
    },
    {
        "Altitude(m)": 706963.0982862881,
        "Argument of Periapsis(deg)": 0.005155528537104883,
        "Eccentricity": 0.0,
        "Inclination(deg)": 45.0,
        "Latitude(deg)": 43.60982371418954,
        "Longitude(deg)": -96.68517867204493,
        "Mean Anomaly(deg)": 103.40209806149136,
        "RAAN(deg)": 254.99513333176105,
        "Satellite Name": "Constellation 1 1128",
        "Satellite Number": 1128,
        "Semi-Major Axis(m)": 7083131.272910544,
        "Time(s)": 86
    },
    {
        "Altitude(m)": 706960.0204959858,
        "Argument of Periapsis(deg)": 0.0052154765433502885,
        "Eccentricity": 0.0,
        "Inclination(deg)": 45.0,
        "Latitude(deg)": 43.59603808461939,
        "Longitude(deg)": -96.60780926996777,
        "Mean Anomaly(deg)": 103.46279920174119,
        "RAAN(deg)": 254.9950767425955,
        "Satellite Name": "Constellation 1 1128",
        "Satellite Number": 1128,
        "Semi-Major Axis(m)": 7083131.272910544,
        "Time(s)": 87
    },
    {
        "Altitude(m)": 706956.9301265633,
        "Argument of Periapsis(deg)": 0.005275424549595694,
        "Eccentricity": 0.0,
        "Inclination(deg)": 45.0,
        "Latitude(deg)": 43.582194402326046,
        "Longitude(deg)": -96.5304771122184,
        "Mean Anomaly(deg)": 103.52350034199108,
        "RAAN(deg)": 254.99502015342986,
        "Satellite Name": "Constellation 1 1128",
        "Satellite Number": 1128,
        "Semi-Major Axis(m)": 7083131.272910544,
        "Time(s)": 88
    },
    {
        "Altitude(m)": 706953.8271962991,
        "Argument of Periapsis(deg)": 0.0053353725558411,
        "Eccentricity": 0.0,
        "Inclination(deg)": 45.0,
        "Latitude(deg)": 43.56829272142799,
        "Longitude(deg)": -96.4531824880545,
        "Mean Anomaly(deg)": 103.58420148224101,
        "RAAN(deg)": 254.9949635642643,
        "Satellite Name": "Constellation 1 1128",
        "Satellite Number": 1128,
        "Semi-Major Axis(m)": 7083131.272910544,
        "Time(s)": 89
    },
    {
        "Altitude(m)": 706950.7117235438,
        "Argument of Periapsis(deg)": 0.005395320562086505,
        "Eccentricity": 0.0,
        "Inclination(deg)": 45.0,
        "Latitude(deg)": 43.554333096206925,
        "Longitude(deg)": -96.37592518189575,
        "Mean Anomaly(deg)": 103.64490262249089,
        "RAAN(deg)": 254.99490697509876,
        "Satellite Name": "Constellation 1 1128",
        "Satellite Number": 1128,
        "Semi-Major Axis(m)": 7083131.272910544,
        "Time(s)": 90
    },
    {
        "Altitude(m)": 706947.5837267289,
        "Argument of Periapsis(deg)": 0.00545526856833191,
        "Eccentricity": 0.0,
        "Inclination(deg)": 45.0,
        "Latitude(deg)": 43.54031558110733,
        "Longitude(deg)": -96.2987054819037,
        "Mean Anomaly(deg)": 103.70560376274078,
        "RAAN(deg)": 254.9948503859332,
        "Satellite Name": "Constellation 1 1128",
        "Satellite Number": 1128,
        "Semi-Major Axis(m)": 7083131.272910544,
        "Time(s)": 91
    },
    {
        "Altitude(m)": 706944.4432243607,
        "Argument of Periapsis(deg)": 0.005515216574577317,
        "Eccentricity": 0.0,
        "Inclination(deg)": 45.0,
        "Latitude(deg)": 43.52624023073513,
        "Longitude(deg)": -96.22152350759369,
        "Mean Anomaly(deg)": 103.76630490299071,
        "RAAN(deg)": 254.99479379676765,
        "Satellite Name": "Constellation 1 1128",
        "Satellite Number": 1128,
        "Semi-Major Axis(m)": 7083131.272910544,
        "Time(s)": 92
    },
    {
        "Altitude(m)": 706941.2902350125,
        "Argument of Periapsis(deg)": 0.005575164580822722,
        "Eccentricity": 0.0,
        "Inclination(deg)": 45.0,
        "Latitude(deg)": 43.512107099857005,
        "Longitude(deg)": -96.14437937793132,
        "Mean Anomaly(deg)": 103.8270060432406,
        "RAAN(deg)": 254.99473720760207,
        "Satellite Name": "Constellation 1 1128",
        "Satellite Number": 1128,
        "Semi-Major Axis(m)": 7083131.272910544,
        "Time(s)": 93
    },
    {
        "Altitude(m)": 706938.1247773456,
        "Argument of Periapsis(deg)": 0.005635112587068129,
        "Eccentricity": 0.0,
        "Inclination(deg)": 45.0,
        "Latitude(deg)": 43.49791624339938,
        "Longitude(deg)": -96.06727321133134,
        "Mean Anomaly(deg)": 103.88770718349049,
        "RAAN(deg)": 254.99468061843646,
        "Satellite Name": "Constellation 1 1128",
        "Satellite Number": 1128,
        "Semi-Major Axis(m)": 7083131.272910544,
        "Time(s)": 94
    }
]